{
  "type": "FeatureCollection",
  "features": [
    {
      "type": "Feature",
      "properties": {
        "norad_id": 66814,
        "name": "STARLINK-35984",
        "group": "last-30-days",
        "lat": -30.313681039941752,
        "lon": 86.33303184044793,
        "alt_km": 347.93907657775526,
        "timestamp": "2025-12-16T17:51:09.661782+00:00",
        "meta_object_name": "STARLINK-35984",
        "meta_object_id": "2025-278Z",
        "meta_epoch": "2025-12-15T22:00:01.999584",
        "meta_mean_motion": 15.77045297,
        "meta_eccentricity": 0.00012499,
        "meta_inclination": 42.9983,
        "meta_ra_of_asc_node": 232.4933,
        "meta_arg_of_pericenter": 273.134,
        "meta_mean_anomaly": 296.5003,
        "meta_ephemeris_type": 0,
        "meta_classification_type": "U",
        "meta_norad_cat_id": 66814,
        "meta_element_set_no": 999,
        "meta_rev_at_epoch": 355,
        "meta_bstar": -0.0095920676,
        "meta_mean_motion_dot": -0.01426248,
        "meta_mean_motion_ddot": 0,
        "tle_line1": "1 66814U 25278Z   25349.91668981 -.01426248  00000+0 -95921-2 0  9996",
        "tle_line2": "2 66814  42.9983 232.4933 0001249 273.1340 296.5003 15.77045297  3559"
      },
      "geometry": {
        "type": "Point",
        "coordinates": [
          86.33303184044793,
          -30.313681039941752
        ]
      }
    },
    {
      "type": "Feature",
      "properties": {
        "norad_id": 66815,
        "name": "STARLINK-35985",
        "group": "last-30-days",
        "lat": -29.302385761760124,
        "lon": 84.50948040683537,
        "alt_km": 347.86883509703966,
        "timestamp": "2025-12-16T17:51:09.661794+00:00",
        "meta_object_name": "STARLINK-35985",
        "meta_object_id": "2025-278AA",
        "meta_epoch": "2025-12-15T22:00:01.999584",
        "meta_mean_motion": 15.77078,
        "meta_eccentricity": 0.00012994,
        "meta_inclination": 42.9982,
        "meta_ra_of_asc_node": 232.4982,
        "meta_arg_of_pericenter": 278.151,
        "meta_mean_anomaly": 289.4809,
        "meta_ephemeris_type": 0,
        "meta_classification_type": "U",
        "meta_norad_cat_id": 66815,
        "meta_element_set_no": 999,
        "meta_rev_at_epoch": 355,
        "meta_bstar": -0.0095169424,
        "meta_mean_motion_dot": -0.01418227,
        "meta_mean_motion_ddot": 0,
        "tle_line1": "1 66815U 25278AA  25349.91668981 -.01418227  00000+0 -95169-2 0  9999",
        "tle_line2": "2 66815  42.9982 232.4982 0001299 278.1510 289.4809 15.77078000  3555"
      },
      "geometry": {
        "type": "Point",
        "coordinates": [
          84.50948040683537,
          -29.302385761760124
        ]
      }
    },
    {
      "type": "Feature",
      "properties": {
        "norad_id": 66816,
        "name": "STARLINK-36098",
        "group": "last-30-days",
        "lat": -24.97308018875543,
        "lon": 77.4818160442018,
        "alt_km": 346.7275753491276,
        "timestamp": "2025-12-16T17:51:09.661804+00:00",
        "meta_object_name": "STARLINK-36098",
        "meta_object_id": "2025-278AB",
        "meta_epoch": "2025-12-15T22:00:01.999584",
        "meta_mean_motion": 15.77523123,
        "meta_eccentricity": 0.00014394,
        "meta_inclination": 42.9982,
        "meta_ra_of_asc_node": 232.5205,
        "meta_arg_of_pericenter": 278.1352,
        "meta_mean_anomaly": 280.7251,
        "meta_ephemeris_type": 0,
        "meta_classification_type": "U",
        "meta_norad_cat_id": 66816,
        "meta_element_set_no": 999,
        "meta_rev_at_epoch": 331,
        "meta_bstar": -0.009789463,
        "meta_mean_motion_dot": -0.01480173,
        "meta_mean_motion_ddot": 0,
        "tle_line1": "1 66816U 25278AB  25349.91668981 -.01480173  00000+0 -97895-2 0  9997",
        "tle_line2": "2 66816  42.9982 232.5205 0001439 278.1352 280.7251 15.77523123  3315"
      },
      "geometry": {
        "type": "Point",
        "coordinates": [
          77.4818160442018,
          -24.97308018875543
        ]
      }
    },
    {
      "type": "Feature",
      "properties": {
        "norad_id": 66817,
        "name": "STARLINK-35995",
        "group": "last-30-days",
        "lat": -27.163131565846257,
        "lon": 80.89695895226032,
        "alt_km": 347.35034289324085,
        "timestamp": "2025-12-16T17:51:09.661817+00:00",
        "meta_object_name": "STARLINK-35995",
        "meta_object_id": "2025-278AC",
        "meta_epoch": "2025-12-15T22:00:01.999584",
        "meta_mean_motion": 15.77357158,
        "meta_eccentricity": 0.00013989,
        "meta_inclination": 42.9982,
        "meta_ra_of_asc_node": 232.5093,
        "meta_arg_of_pericenter": 276.8913,
        "meta_mean_anomaly": 286.2946,
        "meta_ephemeris_type": 0,
        "meta_classification_type": "U",
        "meta_norad_cat_id": 66817,
        "meta_element_set_no": 999,
        "meta_rev_at_epoch": 346,
        "meta_bstar": -0.0099944377,
        "meta_mean_motion_dot": -0.01497456,
        "meta_mean_motion_ddot": 0,
        "tle_line1": "1 66817U 25278AC  25349.91668981 -.01497456  00000+0 -99944-2 0  9997",
        "tle_line2": "2 66817  42.9982 232.5093 0001398 276.8913 286.2946 15.77357158  3464"
      },
      "geometry": {
        "type": "Point",
        "coordinates": [
          80.89695895226032,
          -27.163131565846257
        ]
      }
    },
    {
      "type": "Feature",
      "properties": {
        "norad_id": 66818,
        "name": "STARLINK-35994",
        "group": "last-30-days",
        "lat": -26.07871483040746,
        "lon": 79.17385980928115,
        "alt_km": 346.8297847743188,
        "timestamp": "2025-12-16T17:51:09.661832+00:00",
        "meta_object_name": "STARLINK-35994",
        "meta_object_id": "2025-278AD",
        "meta_epoch": "2025-12-15T22:00:01.999584",
        "meta_mean_motion": 15.77411274,
        "meta_eccentricity": 0.00014238,
        "meta_inclination": 42.9984,
        "meta_ra_of_asc_node": 232.5146,
        "meta_arg_of_pericenter": 265.834,
        "meta_mean_anomaly": 295.2793,
        "meta_ephemeris_type": 0,
        "meta_classification_type": "U",
        "meta_norad_cat_id": 66818,
        "meta_element_set_no": 999,
        "meta_rev_at_epoch": 346,
        "meta_bstar": -0.0099209333,
        "meta_mean_motion_dot": -0.01490989,
        "meta_mean_motion_ddot": 0,
        "tle_line1": "1 66818U 25278AD  25349.91668981 -.01490989  00000+0 -99209-2 0  9996",
        "tle_line2": "2 66818  42.9984 232.5146 0001423 265.8340 295.2793 15.77411274  3467"
      },
      "geometry": {
        "type": "Point",
        "coordinates": [
          79.17385980928115,
          -26.07871483040746
        ]
      }
    },
    {
      "type": "Feature",
      "properties": {
        "norad_id": 66819,
        "name": "STARLINK-35989",
        "group": "last-30-days",
        "lat": -28.268802072921876,
        "lon": 82.72477958559496,
        "alt_km": 347.3611138731276,
        "timestamp": "2025-12-16T17:51:09.661842+00:00",
        "meta_object_name": "STARLINK-35989",
        "meta_object_id": "2025-278AE",
        "meta_epoch": "2025-12-15T22:00:01.999584",
        "meta_mean_motion": 15.77277983,
        "meta_eccentricity": 0.00013134,
        "meta_inclination": 42.9985,
        "meta_ra_of_asc_node": 232.5035,
        "meta_arg_of_pericenter": 274.0957,
        "meta_mean_anomaly": 291.1715,
        "meta_ephemeris_type": 0,
        "meta_classification_type": "U",
        "meta_norad_cat_id": 66819,
        "meta_element_set_no": 999,
        "meta_rev_at_epoch": 346,
        "meta_bstar": -0.0097229068,
        "meta_mean_motion_dot": -0.01456917,
        "meta_mean_motion_ddot": 0,
        "tle_line1": "1 66819U 25278AE  25349.91668981 -.01456917  00000+0 -97229-2 0  9990",
        "tle_line2": "2 66819  42.9985 232.5035 0001313 274.0957 291.1715 15.77277983  3466"
      },
      "geometry": {
        "type": "Point",
        "coordinates": [
          82.72477958559496,
          -28.268802072921876
        ]
      }
    },
    {
      "type": "Feature",
      "properties": {
        "norad_id": 66820,
        "name": "KOMPSAT-7",
        "group": "last-30-days",
        "lat": -20.62442453710332,
        "lon": -60.57187178272659,
        "alt_km": 579.1085075896253,
        "timestamp": "2025-12-16T17:51:09.661853+00:00",
        "meta_object_name": "KOMPSAT-7",
        "meta_object_id": "2025-279A",
        "meta_epoch": "2025-12-14T22:41:19.689792",
        "meta_mean_motion": 14.98965885,
        "meta_eccentricity": 0.00087651,
        "meta_inclination": 97.6417,
        "meta_ra_of_asc_node": 294.7686,
        "meta_arg_of_pericenter": 217.2843,
        "meta_mean_anomaly": 142.7773,
        "meta_ephemeris_type": 0,
        "meta_classification_type": "U",
        "meta_norad_cat_id": 66820,
        "meta_element_set_no": 999,
        "meta_rev_at_epoch": 198,
        "meta_bstar": 0.00023616624,
        "meta_mean_motion_dot": 2.802e-05,
        "meta_mean_motion_ddot": 0,
        "tle_line1": "1 66820U 25279A   25348.94536678  .00002802  00000+0  23617-3 0  9990",
        "tle_line2": "2 66820  97.6417 294.7686 0008765 217.2843 142.7773 14.98965885  1985"
      },
      "geometry": {
        "type": "Point",
        "coordinates": [
          -60.57187178272659,
          -20.62442453710332
        ]
      }
    }
  ]
}